{"fetched_at":"2026-03-29T16:36:15Z","count":15609,"tles":[{"name":"STARLINK-11722 [DTC]","line1":"1 64128U 25111F   26087.66257236  .00210148  00000+0  15871-2 0  9990","line2":"2 64128  42.9987 219.4324 0002201 230.8319 129.2354 15.71034562 49573","category":"Starlink"}]}